IRIDIUM 126             
1 42809U 17039G   23296.80812281  .00000489  00000+0  16760-3 0  9998
2 42809  86.4010  37.9094 0001949  88.4160 271.7259 14.34223971331293
IRIDIUM 124             
1 42810U 17039H   23296.81786726  .00000549  00000+0  15730-3 0  9998
2 42810  86.4499 334.6919 0002354  98.0872 262.0596 14.43281030335580
IRIDIUM 128             
1 42811U 17039J   23296.86863653  .00000544  00000+0  18717-3 0  9992
2 42811  86.3952  69.4113 0001924  92.2630 267.8786 14.34217230331337
IRIDIUM 121             
1 42812U 17039K   23296.82715863  .00000504  00000+0  17285-3 0  9993
2 42812  86.4010  37.9229 0002165  90.0298 270.1146 14.34221575331172
IRIDIUM 133             
1 42955U 17061A   23296.90035009  .00000494  00000+0  16940-3 0  9997
2 42955  86.3954  69.4921 0001974  84.6054 275.5367 14.34220977316139
IRIDIUM 100             
1 42956U 17061B   23296.89400927  .00000492  00000+0  16867-3 0  9997
2 42956  86.3952  69.4361 0002002  92.2862 267.8563 14.34220187316136
IRIDIUM 122             
1 42957U 17061C   23296.86229475  .00000464  00000+0  15863-3 0  9996
2 42957  86.3952  69.4472 0001803  93.2487 266.8915 14.34218758316133
IRIDIUM 129             
1 42958U 17061D   23296.88766811  .00000512  00000+0  17564-3 0  9993
2 42958  86.3953  69.4935 0001831  92.3023 267.8383 14.34220704316152
